{
  "type": "FeatureCollection",
  "features": [
    {
      "type": "Feature",
      "properties": {
        "norad_id": 40793,
        "name": "COSMOS 2251 DEB",
        "group": "cosmos-2251-debris",
        "lat": -1.014692515711051,
        "lon": 3.728568921008498,
        "alt_km": 1023.7984626367979,
        "timestamp": "2025-12-02T07:10:09.514750+00:00",
        "meta_object_name": "COSMOS 2251 DEB",
        "meta_object_id": "1993-036BVW",
        "meta_epoch": "2025-11-17T22:59:08.433600",
        "meta_mean_motion": 14.0559149,
        "meta_eccentricity": 0.02150611,
        "meta_inclination": 73.9793,
        "meta_ra_of_asc_node": 208.5839,
        "meta_arg_of_pericenter": 10.058,
        "meta_mean_anomaly": 350.4754,
        "meta_ephemeris_type": 0,
        "meta_classification_type": "U",
        "meta_norad_cat_id": 40793,
        "meta_element_set_no": 999,
        "meta_rev_at_epoch": 67897,
        "meta_bstar": 0.0015211732,
        "meta_mean_motion_dot": 3.024e-05,
        "meta_mean_motion_ddot": 0,
        "tle_line1": "1 40793U 93036BVW 25321.95773650  .00003024  00000+0  15212-2 0  9990",
        "tle_line2": "2 40793  73.9793 208.5839 0215061  10.0580 350.4754 14.05591490678970"
      },
      "geometry": {
        "type": "Point",
        "coordinates": [
          3.728568921008498,
          -1.014692515711051
        ]
      }
    },
    {
      "type": "Feature",
      "properties": {
        "norad_id": 40794,
        "name": "COSMOS 2251 DEB",
        "group": "cosmos-2251-debris",
        "lat": -67.23583711130692,
        "lon": 8.506479423428042,
        "alt_km": 593.1134312288523,
        "timestamp": "2025-12-02T07:10:09.514761+00:00",
        "meta_object_name": "COSMOS 2251 DEB",
        "meta_object_id": "1993-036BVX",
        "meta_epoch": "2025-11-30T04:39:36.279360",
        "meta_mean_motion": 14.91253423,
        "meta_eccentricity": 0.00103638,
        "meta_inclination": 73.9758,
        "meta_ra_of_asc_node": 149.5129,
        "meta_arg_of_pericenter": 264.0956,
        "meta_mean_anomaly": 215.1976,
        "meta_ephemeris_type": 0,
        "meta_classification_type": "U",
        "meta_norad_cat_id": 40794,
        "meta_element_set_no": 999,
        "meta_rev_at_epoch": 61737,
        "meta_bstar": 0.0047311798,
        "meta_mean_motion_dot": 0.00047418,
        "meta_mean_motion_ddot": 0,
        "tle_line1": "1 40794U 93036BVX 25334.19416990  .00047418  00000+0  47312-2 0  9993",
        "tle_line2": "2 40794  73.9758 149.5129 0010363 264.0956 215.1976 14.91253423617370"
      },
      "geometry": {
        "type": "Point",
        "coordinates": [
          8.506479423428042,
          -67.23583711130692
        ]
      }
    },
    {
      "type": "Feature",
      "properties": {
        "norad_id": 40796,
        "name": "COSMOS 2251 DEB",
        "group": "cosmos-2251-debris",
        "lat": -24.494570778203748,
        "lon": 155.3328422126726,
        "alt_km": 597.148990898384,
        "timestamp": "2025-12-02T07:10:09.514771+00:00",
        "meta_object_name": "COSMOS 2251 DEB",
        "meta_object_id": "1993-036BVZ",
        "meta_epoch": "2025-11-30T19:42:23.327712",
        "meta_mean_motion": 14.81447216,
        "meta_eccentricity": 0.00560121,
        "meta_inclination": 74.0123,
        "meta_ra_of_asc_node": 165.7589,
        "meta_arg_of_pericenter": 304.3693,
        "meta_mean_anomaly": 72.6402,
        "meta_ephemeris_type": 0,
        "meta_classification_type": "U",
        "meta_norad_cat_id": 40796,
        "meta_element_set_no": 999,
        "meta_rev_at_epoch": 75982,
        "meta_bstar": 0.00078166987,
        "meta_mean_motion_dot": 6.258e-05,
        "meta_mean_motion_ddot": 0,
        "tle_line1": "1 40796U 93036BVZ 25334.82110333  .00006258  00000+0  78167-3 0  9997",
        "tle_line2": "2 40796  74.0123 165.7589 0056012 304.3693  72.6402 14.81447216759828"
      },
      "geometry": {
        "type": "Point",
        "coordinates": [
          155.3328422126726,
          -24.494570778203748
        ]
      }
    },
    {
      "type": "Feature",
      "properties": {
        "norad_id": 40797,
        "name": "COSMOS 2251 DEB",
        "group": "cosmos-2251-debris",
        "lat": 12.548194322202413,
        "lon": 120.73035944316894,
        "alt_km": 488.5629944966013,
        "timestamp": "2025-12-02T07:10:09.514786+00:00",
        "meta_object_name": "COSMOS 2251 DEB",
        "meta_object_id": "1993-036BWA",
        "meta_epoch": "2025-11-19T18:43:16.602528",
        "meta_mean_motion": 15.10509474,
        "meta_eccentricity": 0.00703947,
        "meta_inclination": 73.92,
        "meta_ra_of_asc_node": 143.0892,
        "meta_arg_of_pericenter": 60.6639,
        "meta_mean_anomaly": 300.156,
        "meta_ephemeris_type": 0,
        "meta_classification_type": "U",
        "meta_norad_cat_id": 40797,
        "meta_element_set_no": 999,
        "meta_rev_at_epoch": 64297,
        "meta_bstar": 0.00072810385,
        "meta_mean_motion_dot": 0.00012707,
        "meta_mean_motion_ddot": 0,
        "tle_line1": "1 40797U 93036BWA 25323.78005327  .00012707  00000+0  72810-3 0  9992",
        "tle_line2": "2 40797  73.9200 143.0892 0070394  60.6639 300.1560 15.10509474642979"
      },
      "geometry": {
        "type": "Point",
        "coordinates": [
          120.73035944316894,
          12.548194322202413
        ]
      }
    },
    {
      "type": "Feature",
      "properties": {
        "norad_id": 40799,
        "name": "COSMOS 2251 DEB",
        "group": "cosmos-2251-debris",
        "lat": -24.851461130635357,
        "lon": -52.70095009641548,
        "alt_km": 659.2650945132591,
        "timestamp": "2025-12-02T07:10:09.514797+00:00",
        "meta_object_name": "COSMOS 2251 DEB",
        "meta_object_id": "1993-036BWC",
        "meta_epoch": "2025-11-25T04:10:54.666912",
        "meta_mean_motion": 14.96445467,
        "meta_eccentricity": 0.01183753,
        "meta_inclination": 73.9244,
        "meta_ra_of_asc_node": 134.1195,
        "meta_arg_of_pericenter": 20.3191,
        "meta_mean_anomaly": 340.2644,
        "meta_ephemeris_type": 0,
        "meta_classification_type": "U",
        "meta_norad_cat_id": 40799,
        "meta_element_set_no": 999,
        "meta_rev_at_epoch": 49714,
        "meta_bstar": 0.000381797,
        "meta_mean_motion_dot": 4.953e-05,
        "meta_mean_motion_ddot": 0,
        "tle_line1": "1 40799U 93036BWC 25329.17424383  .00004953  00000+0  38180-3 0  9996",
        "tle_line2": "2 40799  73.9244 134.1195 0118375  20.3191 340.2644 14.96445467497143"
      },
      "geometry": {
        "type": "Point",
        "coordinates": [
          -52.70095009641548,
          -24.851461130635357
        ]
      }
    },
    {
      "type": "Feature",
      "properties": {
        "norad_id": 40802,
        "name": "COSMOS 2251 DEB",
        "group": "cosmos-2251-debris",
        "lat": -63.66165411874696,
        "lon": 28.80994092273462,
        "alt_km": 604.0410796438318,
        "timestamp": "2025-12-02T07:10:09.514807+00:00",
        "meta_object_name": "COSMOS 2251 DEB",
        "meta_object_id": "1993-036BWF",
        "meta_epoch": "2025-12-01T20:17:30.115680",
        "meta_mean_motion": 14.77439323,
        "meta_eccentricity": 0.0063455,
        "meta_inclination": 74.0396,
        "meta_ra_of_asc_node": 174.3825,
        "meta_arg_of_pericenter": 275.3003,
        "meta_mean_anomaly": 84.0934,
        "meta_ephemeris_type": 0,
        "meta_classification_type": "U",
        "meta_norad_cat_id": 40802,
        "meta_element_set_no": 999,
        "meta_rev_at_epoch": 64248,
        "meta_bstar": 0.00059588,
        "meta_mean_motion_dot": 4.354e-05,
        "meta_mean_motion_ddot": 0,
        "tle_line1": "1 40802U 93036BWF 25335.84548745  .00004354  00000+0  59588-3 0  9991",
        "tle_line2": "2 40802  74.0396 174.3825 0063455 275.3003  84.0934 14.77439323642483"
      },
      "geometry": {
        "type": "Point",
        "coordinates": [
          28.80994092273462,
          -63.66165411874696
        ]
      }
    },
    {
      "type": "Feature",
      "properties": {
        "norad_id": 40803,
        "name": "COSMOS 2251 DEB",
        "group": "cosmos-2251-debris",
        "lat": -21.7035915659273,
        "lon": 65.03891384602873,
        "alt_km": 708.4669944635489,
        "timestamp": "2025-12-02T07:10:09.514817+00:00",
        "meta_object_name": "COSMOS 2251 DEB",
        "meta_object_id": "1993-036BWG",
        "meta_epoch": "2025-11-28T13:57:57.324672",
        "meta_mean_motion": 14.51758448,
        "meta_eccentricity": 0.00344541,
        "meta_inclination": 74.0129,
        "meta_ra_of_asc_node": 78.5975,
        "meta_arg_of_pericenter": 297.2945,
        "meta_mean_anomaly": 62.4709,
        "meta_ephemeris_type": 0,
        "meta_classification_type": "U",
        "meta_norad_cat_id": 40803,
        "meta_element_set_no": 999,
        "meta_rev_at_epoch": 58547,
        "meta_bstar": 0.00037309243,
        "meta_mean_motion_dot": 1.482e-05,
        "meta_mean_motion_ddot": 0,
        "tle_line1": "1 40803U 93036BWG 25332.58191348  .00001482  00000+0  37309-3 0  9999",
        "tle_line2": "2 40803  74.0129  78.5975 0034454 297.2945  62.4709 14.51758448585473"
      },
      "geometry": {
        "type": "Point",
        "coordinates": [
          65.03891384602873,
          -21.7035915659273
        ]
      }
    }
  ]
}